[{"OBJECT_NAME":"IRIDIUM 162","OBJECT_ID":"2018-047G","EPOCH":"2026-03-09T16:09:02.112768","MEAN_MOTION":14.43274905,"ECCENTRICITY":0.0002109,"INCLINATION":86.4501,"RA_OF_ASC_NODE":129.9826,"ARG_OF_PERICENTER":95.166,"MEAN_ANOMALY":264.9782,"EPHEMERIS_TYPE":0,"CLASSIFICATION_TYPE":"U","NORAD_CAT_ID":43482,"ELEMENT_SET_NO":999,"REV_AT_EPOCH":41077,"BSTAR":7.0339294e-5,"MEAN_MOTION_DOT":2.57e-6,"MEAN_MOTION_DDOT":0},{"OBJECT_NAME":"COSMOS 2251 DEB","OBJECT_ID":"1993-036UQ","EPOCH":"2026-03-09T06:02:55.569984","MEAN_MOTION":14.3813603,"ECCENTRICITY":0.00232911,"INCLINATION":74.0384,"RA_OF_ASC_NODE":139.675,"ARG_OF_PERICENTER":188.9623,"MEAN_ANOMALY":228.4367,"EPHEMERIS_TYPE":0,"CLASSIFICATION_TYPE":"U","NORAD_CAT_ID":34554,"ELEMENT_SET_NO":999,"REV_AT_EPOCH":88999,"BSTAR":0.00031040558,"MEAN_MOTION_DOT":9.18e-6,"MEAN_MOTION_DDOT":0}]
